INTELSAT 10 (IS-10)     
1 26766U 01019A   20336.43591096  .00000142  00000-0  00000-0 0  9996
2 26766   4.2692  77.7937 0004008 182.8690  14.5302  1.00272184 25320
INTELSAT 901 (IS-901)   
1 26824U 01024A   20336.44381383 -.00000181  00000-0  00000-0 0  9998
2 26824   0.0254  55.1016 0001055 198.7891 309.1807  1.00270764  2688
ASTRA 2C                
1 26853U 01025A   20336.23863456  .00000156  00000-0  00000+0 0  9994
2 26853   3.2177  84.1618 0003100 163.8135 292.1854  1.00273439 71283
USA 159 (DSP 21)        
1 26880U 01033A   20336.51021509 -.00000281  00000-0  00000-0 0  9990
2 26880  10.9206  29.2758 0001311 276.8060 259.3789  1.00271675 12670
INTELSAT 902 (IS-902)   
1 26900U 01039A   20336.36748226 -.00000261  00000-0  00000-0 0  9992
2 26900   1.0175  94.9337 0003058 163.2269 254.7307  1.00270460 70424
USA 164 (MILSTAR-2 3)   
1 27168U 02001A   20336.34771517  .00000117  00000-0  00000+0 0  9994
2 27168   8.9343  31.2464 0002584 221.7553 321.8030  1.00270649 11353
ECHOSTAR 7              
1 27378U 02006A   20336.52935840  .00000020  00000-0  00000+0 0  9996
2 27378   0.0152  24.7743 0001873 200.2227 277.6358  1.00272942 68771
INTELSAT 904 (IS-904)   
1 27380U 02007A   20336.44337765 -.00000193  00000-0  00000+0 0  9995
2 27380   1.8552  91.6551 0003518 163.5196 305.7242  1.00271378 68790
TDRS 9                  
1 27389U 02011A   20336.43362683 -.00000269  00000-0  00000-0 0  9990
2 27389   7.8383  65.9002 0026011 276.7000 181.7998  1.00264398 70153
JCSAT-2A                
1 27399U 02015A   20336.47687630 -.00000258  00000-0  00000-0 0  9999
2 27399   3.2941  83.9337 0002798 195.5637 101.1557  1.00375534 68604
ASTRA 3A                
1 27400U 02015B   20336.35765485 -.00000186  00000-0  00000+0 0  9993
2 27400   6.2504  62.5682 0001581 200.5952 209.5111  1.00272820 68420
NSS-7                   
1 27414U 02019A   20336.44529684 -.00000139  00000-0  00000+0 0  9999
2 27414   4.6097  75.5701 0002399 179.3144 316.1751  1.00270716 68263
DIRECTV 5 (TEMPO 1)     
1 27426U 02023A   20336.53478753 -.00000035  00000-0  00000+0 0  9992
2 27426   0.0179 347.7537 0003374 277.8080 247.7156  1.00272293 68018
INTELSAT 905 (IS-905)   
1 27438U 02027A   20336.44442448 -.00000164  00000-0  00000+0 0  9994
2 27438   1.6760  92.5021 0002856 154.6427 319.1366  1.00272121 67676
GALAXY 3C (G-3C)        
1 27445U 02030A   20336.28678887 -.00000130  00000-0  00000-0 0  9990
2 27445   0.0200 307.6393 0002076  14.3121 116.8810  1.00269341 26216
EUTELSAT 5 WEST A       
1 27460U 02035A   20336.30467227 -.00000021  00000-0  00000-0 0  9998
2 27460   0.9552  95.2426 0006117 160.2865 279.7921  1.00272023 67325
METEOSAT-8 (MSG-1)      
1 27509U 02040B   20336.33799437  .00000154  00000-0  00000-0 0  9998
2 27509   7.0198  53.3770 0002422 196.3104 344.0146  1.00274851 66955
INTELSAT 906 (IS-906)   
1 27513U 02041A   20336.36768012  .00000035  00000-0  00000-0 0  9990
2 27513   0.6821  97.1673 0003158 160.1765   9.8696  1.00272597 66736
HISPASAT 30W-4          
1 27528U 02044A   20336.59916583  .00000138  00000-0  00000-0 0  9996
2 27528   1.4711  92.3317 0004361 167.6471 243.6084  1.00272601 22685
TDRS 10                 
1 27566U 02055A   20336.49500105  .00000109  00000-0  00000-0 0  9996
2 27566   7.1974  52.8373 0007148 276.9167 108.3755  1.00279358 65940
NSS-6                   
1 27603U 02057A   20336.58160323  .00000129  00000-0  00000-0 0  9996
2 27603   0.2181  98.1317 0004667 154.5611 218.0911  1.00270803 65753
NIMIQ 2                 
1 27632U 02062A   20336.35928205 -.00000158  00000-0  00000-0 0  9993
2 27632   4.7224  74.7903 0004017 271.0247 123.1036  1.00273135 23896
USA 167                 
1 27691U 03008A   20336.43722586  .00000073  00000-0  00000+0 0  9996
2 27691   6.9590  57.9480 0001165 341.7651  58.3826  1.00270105 11335
USA 169 (MILSTAR-2 4)   
1 27711U 03012A   20336.55475622 -.00000179  00000-0  00000-0 0  9992
2 27711   9.2973  43.7658 0003347 206.0228 172.8974  1.00270225 12662
GALAXY 12 (G-12)        
1 27715U 03013B   20336.52343003  .00000079  00000-0  00000-0 0  9999
2 27715   1.8910  91.0546 0002105 165.3657 233.8748  1.00273040 31803
ASIASAT 4               
1 27718U 03014A   20336.48382646  .00000174  00000-0  00000+0 0  9999
2 27718   0.0220 113.0166 0001668 142.1755  27.9725  1.00271660 64628
HELLAS-SAT 2            
1 27811U 03020A   20336.50655244 -.00000130  00000-0  00000-0 0  9994
2 27811   2.3100  90.4320 0002383 160.9049 266.6806  1.00272235 22550
THURAYA-2               
1 27825U 03026A   20336.28382804  .00000146  00000-0  00000+0 0  9994
2 27825   6.0910  33.4129 0004660 213.9828 329.3827  1.00270507 64043
OPTUS C1                
1 27831U 03028B   20336.55715255 -.00000130  00000-0  00000-0 0  9998
2 27831   1.8169  92.4944 0006278 154.7102 179.9696  1.00270679 32760
GALAXY 23 (G-23)        
1 27854U 03034A   20336.52895368  .00000034  00000-0  00000-0 0  9993
2 27854   0.0186 293.8701 0002907 313.2698 253.1478  1.00271345 63454
USA 170                 
1 27875U 03040A   20336.36287240 -.00000255  00000-0  00000+0 0  9994
2 27875   6.2220  63.4211 0002542 138.8560 316.7057  1.00267945 11335
GALAXY 13 (HORIZONS 1)  
1 27954U 03044A   20336.52412127  .00000069  00000-0  00000-0 0  9991
2 27954   0.0565 109.2966 0000395 289.2140  94.0375  1.00272884 26289
YAMAL 202               
1 28089U 03053A   20336.64619520 -.00000058  00000-0  00000-0 0  9999
2 28089   1.2490  93.6789 0003610 131.4834 241.9470  1.00271582 62394
UFO 11 (USA 174)        
1 28117U 03057A   20336.19285484 -.00000084  00000-0  00000-0 0  9992
2 28117   6.2511  37.6370 0002278 276.9512 260.7887  1.00271365 62127
USA 176 (DSP 22)        
1 28158U 04004A   20336.53955505 -.00000203  00000-0  00000-0 0  9999
2 28158   9.3740  38.3253 0001241 244.7734  69.3639  1.00274549 12632
ABS-4 (MOBISAT-1)       
1 28184U 04007A   20336.47271733  .00000062  00000-0  00000-0 0  9990
2 28184   0.9312  95.0202 0005431 153.6298  53.2964  1.00269967 32043
EUTELSAT 7A             
1 28187U 04008A   20336.37428667 -.00000154  00000-0  00000-0 0  9996
2 28187   0.7253  90.7676 0000436 256.5046 202.0612  0.99957372 61068
DIRECTV 7S              
1 28238U 04016A   20336.40049291  .00000022  00000-0  00000-0 0  9991
2 28238   0.0619 101.5925 0001315 224.4077 129.8362  1.00270720 60770
AMC-11 (GE-11)          
1 28252U 04017A   20336.52167951  .00000090  00000-0  00000-0 0  9990
2 28252   0.0154 357.8250 0002838 254.9842 234.8434  1.00271852 60590
INTELSAT 10-02          
1 28358U 04022A   20336.43521549  .00000010  00000-0  00000-0 0  9992
2 28358   0.0151 279.3220 0003013 338.0342 329.1061  1.00272052 60311
ANIK F2                 
1 28378U 04027A   20336.06826249 -.00000028  00000-0  00000-0 0  9993
2 28378   0.0173 301.7867 0000284 332.2455  69.8698  1.00271811 20987
AMC-15                  
1 28446U 04041A   20336.53870076 -.00000068  00000-0  00000-0 0  9998
2 28446   0.0355  52.9754 0003249 216.3188 250.4570  1.00270539 59035
AMC-16                  
1 28472U 04048A   20336.50684946 -.00000185  00000-0  00000-0 0  9990
2 28472   0.0149 337.6881 0003199 279.5753 271.0400  1.00271553 58433
NSS-10 (AMC-12)         
1 28526U 05003A   20336.35751569 -.00000230  00000-0  00000-0 0  9992
2 28526   1.4135  92.9520 0003224 159.8620 269.1251  1.00270564 32868
XTAR-EUR                
1 28542U 05005A   20335.72482713  .00000172  00000-0  00000-0 0  9998
2 28542   0.0167   1.2071 0002747 247.5605 111.2330  1.00271834 57882
XM-3 (RHYTHM)           
1 28626U 05008A   20336.50684946 -.00000184  00000-0  00000-0 0  9997
2 28626   0.0178 329.4279 0000329 285.6229 273.1463  1.00270215 22330
INMARSAT 4-F1           
1 28628U 05009A   20336.40612785 -.00000242  00000-0  00000-0 0  9996
2 28628   3.2587  28.8574 0003002 228.1070 103.4638  1.00272483 57376
APSTAR 6                
1 28638U 05012A   20336.47537091 -.00000064  00000-0  00000-0 0  9996
2 28638   2.2131  96.0175 0005800 162.6568 146.1393  1.00272829 82089
DIRECTV 8               
1 28659U 05019A   20336.52935885  .00000022  00000-0  00000+0 0  9997
2 28659   0.0183 317.6376 0003211 309.1471 235.6047  1.00270983 56894
GALAXY 28 (G-28)        
1 28702U 05022A   20336.43151353 -.00000164  00000-0  00000+0 0  9998
2 28702   0.0070  73.6362 0000744 249.9339 173.5366  1.00269621 56536
EXPRESS-AM3             
1 28707U 05023A   20336.59980014 -.00000303  00000-0  00000-0 0  9991
2 28707   2.2299  89.2680 0001155 150.6975 149.9568  1.00272313 56549
THAICOM 4               
1 28786U 05028A   20336.04244062 -.00000341  00000-0  00000+0 0  9990
2 28786   0.0176 330.2908 0002837 278.4658 316.4192  1.00270894 56022
GALAXY 14 (G-14)        
1 28790U 05030A   20336.52577718  .00000057  00000-0  00000-0 0  9992
2 28790   0.0192 326.9146 0002746 276.6070 251.6257  1.00273448 56028
ANIK F1R                
1 28868U 05036A   20336.36308845 -.00000053  00000-0  00000-0 0  9996
2 28868   0.0578  89.8063 0001539 211.8848 152.4192  1.00272421 26166
GALAXY 15 (G-15)        
1 28884U 05041A   20336.52053602  .00000100  00000-0  00000-0 0  9998
2 28884   0.0267 296.9282 0001634 307.6016 240.7110  1.00273553 55384
SYRACUSE 3A             
1 28885U 05041B   20336.47827189  .00000151  00000-0  00000+0 0  9997
2 28885   0.0358 293.8750 0003206 290.3653  65.6727  1.00263710 55432
INMARSAT 4-F2           
1 28899U 05044A   20336.46204617  .00000029  00000-0  00000-0 0  9994
2 28899   3.1190  31.5666 0003153 227.0680  42.3826  1.00273465 55223
TELKOM 2                
1 28902U 05046A   20336.55819378 -.00000117  00000-0  00000-0 0  9996
2 28902   0.0047 356.1105 0001275  98.7312 333.9962  1.00271977 55144
SPACEWAY 2              
1 28903U 05046B   20336.51686060  .00000125  00000-0  00000-0 0  9991
2 28903   0.5813  92.5075 0000208 157.5628 227.9615  1.00272848 31056
